     2              NAVIGATION DATA                         RINEX VERSION / TYPE
CCRINEXN V1.6.0 UX  CDDIS               02-JAN-17 17:31     PGM / RUN BY / DATE 
IGS BROADCAST EPHEMERIS FILE                                COMMENT             
    0.1211D-07 -0.7451D-08 -0.5960D-07  0.1192D-06          ION ALPHA           
    0.1167D+06 -0.2458D+06 -0.6554D+05  0.1114D+07          ION BETA            
    0.931322574615D-09 0.444089209850D-14   589824     1877 DELTA-UTC: A0,A1,T,W
    17                                                      LEAP SECONDS        
                                                            END OF HEADER       
15 16  1  1 22  0  0.0-0.290151219815D-03-0.193267624127D-11 0.000000000000D+00
    0.450000000000D+02 0.496875000000D+02 0.535915180161D-08-0.297664330635D+01
    0.250712037086D-05 0.797623570543D-02 0.752694904804D-05 0.515377519417D+04
    0.511200000000D+06-0.124797224999D-06 0.250311560598D+01-0.143423676491D-06
    0.931642839029D+00 0.220562500000D+03 0.461162181964D+00-0.832391815317D-08
    0.946467995620D-10 0.000000000000D+00 0.187700000000D+04 0.000000000000D+00
    0.200000000000D+01 0.000000000000D+00-0.107102096081D-07 0.450000000000D+02
    0.504000000000D+06 0.400000000000D+01 0.000000000000D+00 0.000000000000D+00
16 16  1  1 22  0  0.0-0.520688481629D-04 0.329691829393D-11 0.000000000000D+00
    0.140000000000D+02 0.665625000000D+01 0.372015485084D-08-0.116174257437D+01
    0.292435288429D-06 0.833911821246D-02 0.812485814094D-05 0.515368246460D+04
    0.511200000000D+06 0.139698386192D-06-0.156206373576D+01-0.139698386192D-06
    0.990603910400D+00 0.239218750000D+03 0.313897575940D+00-0.768281971375D-08
   -0.253581999149D-10 0.100000000000D+01 0.187700000000D+04 0.000000000000D+00
    0.200000000000D+01 0.000000000000D+00-0.102445483208D-07 0.140000000000D+02
    0.504000000000D+06 0.000000000000D+00 0.000000000000D+00 0.000000000000D+00
17 16  1  1 22  0  0.0-0.197960995138D-03-0.795807864051D-12 0.000000000000D+00
    0.850000000000D+02-0.443750000000D+01 0.421267547484D-08-0.213791682553D+01
   -0.201165676117D-06 0.108811917016D-01 0.594742596149D-05 0.515361515045D+04
    0.511200000000D+06 0.176951289177D-06-0.538274642008D+00-0.111758708954D-06
    0.974998177662D+00 0.272281250000D+03-0.197414880512D+01-0.782211153663D-08
    0.281440294547D-09 0.000000000000D+00 0.187700000000D+04 0.000000000000D+00
    0.200000000000D+01 0.000000000000D+00-0.107102096081D-07 0.850000000000D+02
    0.504000000000D+06 0.400000000000D+01 0.000000000000D+00 0.000000000000D+00
18 16  1  1 22  0  0.0 0.468715559691D-03 0.375166564481D-11 0.000000000000D+00
    0.400000000000D+02-0.103125000000D+01 0.547487090749D-08-0.592274713865D+00
    0.931322574615D-07 0.164557247190D-01 0.937469303608D-05 0.515365307236D+04
    0.511200000000D+06-0.154599547386D-06 0.148308100370D+01 0.232830643654D-06
    0.924599706249D+00 0.184937500000D+03-0.192129312580D+01-0.869500503900D-08
    0.667884962947D-10 0.100000000000D+01 0.187700000000D+04 0.000000000000D+00
    0.200000000000D+01 0.000000000000D+00-0.111758708954D-07 0.400000000000D+02
    0.504018000000D+06 0.400000000000D+01 0.000000000000D+00 0.000000000000D+00
19 16  1  1 22  0  0.0-0.524171162397D-03-0.227373675443D-12 0.000000000000D+00
    0.112000000000D+03-0.543750000000D+01 0.437982529445D-08 0.164047478575D+01
   -0.290572643280D-06 0.112841167720D-01 0.637024641037D-05 0.515518320465D+04
    0.511200000000D+06-0.158324837685D-06-0.489191651402D+00 0.186264514923D-07
    0.972093477744D+00 0.268781250000D+03 0.668353298980D+00-0.811819529828D-08
    0.112147528538D-09 0.100000000000D+01 0.187700000000D+04 0.000000000000D+00
    0.200000000000D+01 0.000000000000D+00-0.149011611938D-07 0.112000000000D+03
    0.504000000000D+06 0.400000000000D+01 0.000000000000D+00 0.000000000000D+00
20 16  1  1 22  0  0.0 0.382671132684D-03 0.272848410532D-11 0.000000000000D+00
    0.960000000000D+02-0.136250000000D+02 0.529129183211D-08-0.287351214607D+01
   -0.871717929840D-06 0.500817911234D-02 0.935420393944D-05 0.515368226242D+04
    0.511200000000D+06 0.689178705216D-07 0.143103630619D+01-0.260770320892D-07
    0.925852441036D+00 0.177875000000D+03 0.130511169580D+01-0.827891627866D-08
    0.442875590403D-10 0.000000000000D+00 0.187700000000D+04 0.000000000000D+00
    0.200000000000D+01 0.000000000000D+00-0.838190317154D-08 0.960000000000D+02
    0.504630000000D+06 0.400000000000D+01 0.000000000000D+00 0.000000000000D+00
21 16  1  1 22  0  0.0-0.502889044583D-03-0.216004991671D-11 0.000000000000D+00
    0.690000000000D+02-0.415625000000D+02 0.531307845390D-08 0.300698540936D+00
   -0.205822288990D-05 0.228663474554D-01 0.673346221447D-05 0.515369199753D+04
    0.511200000000D+06-0.402331352234D-06 0.440604398382D+00 0.558793544769D-07
    0.935550445363D+00 0.242156250000D+03-0.184716969120D+01-0.882679624292D-08
   -0.932181686252D-10 0.100000000000D+01 0.187700000000D+04 0.000000000000D+00
    0.200000000000D+01 0.000000000000D+00-0.116415321827D-07 0.690000000000D+02
    0.504000000000D+06 0.400000000000D+01 0.000000000000D+00 0.000000000000D+00
22 16  1  1 22  0  0.0 0.415762886405D-03-0.363797880709D-11 0.000000000000D+00
    0.660000000000D+02-0.131250000000D+01 0.534093675717D-08-0.133055517812D+01
    0.391155481338D-07 0.750883750152D-02 0.900961458683D-05 0.515511004257D+04
    0.511200000000D+06 0.130385160446D-06 0.148387976137D+01 0.178813934326D-06
    0.922443774617D+00 0.183406250000D+03-0.202787559510D+01-0.834999066777D-08
    0.375015620906D-10 0.100000000000D+01 0.187700000000D+04 0.000000000000D+00
    0.280000000000D+01 0.000000000000D+00-0.176951289177D-07 0.660000000000D+02
    0.504018000000D+06 0.400000000000D+01 0.000000000000D+00 0.000000000000D+00
23 16  1  1 22  0  0.0-0.152783002704D-03-0.193267624127D-11 0.000000000000D+00
    0.210000000000D+02 0.547500000000D+02 0.501592321905D-08 0.288353692533D+01
    0.278279185295D-05 0.103964175796D-01 0.684894621372D-05 0.515374907112D+04
    0.511200000000D+06-0.316649675369D-07 0.255865648314D+01-0.135973095894D-06
    0.946870988223D+00 0.243000000000D+03-0.261790626285D+01-0.814248202420D-08
    0.136077096729D-09 0.100000000000D+01 0.187700000000D+04 0.000000000000D+00
    0.200000000000D+01 0.000000000000D+00-0.200234353542D-07 0.210000000000D+02
    0.508332000000D+06 0.400000000000D+01 0.000000000000D+00 0.000000000000D+00
24 16  1  1 22  0  0.0-0.101211480796D-04-0.568434188608D-12 0.000000000000D+00
    0.940000000000D+02 0.859375000000D+01 0.491306179160D-08 0.227169524913D+01
    0.488013029099D-06 0.402520061471D-02 0.563263893127D-05 0.515364226150D+04
    0.511200000000D+06-0.782310962677D-07-0.269858242645D+01 0.353902578354D-07
    0.951400001195D+00 0.266281250000D+03 0.323728629740D+00-0.831106047474D-08
   -0.208937274505D-09 0.000000000000D+00 0.187700000000D+04 0.000000000000D+00
    0.280000000000D+01 0.000000000000D+00 0.279396772385D-08 0.940000000000D+02
    0.507690000000D+06 0.400000000000D+01 0.000000000000D+00 0.000000000000D+00
25 16  1  1 22  0  0.0-0.924905762076D-04-0.625277607469D-11 0.000000000000D+00
    0.430000000000D+02-0.703125000000D+01 0.409695636896D-08 0.286036067053D+00
   -0.318512320519D-06 0.489087053575D-02 0.764057040214D-05 0.515358065224D+04
    0.511200000000D+06 0.372529029846D-08-0.163001803019D+01 0.782310962677D-07
    0.978434367422D+00 0.239812500000D+03 0.695845674137D+00-0.796568894578D-08
   -0.102504269714D-09 0.100000000000D+01 0.187700000000D+04 0.000000000000D+00
    0.200000000000D+01 0.000000000000D+00 0.558793544769D-08 0.430000000000D+02
    0.509820000000D+06 0.400000000000D+01 0.000000000000D+00 0.000000000000D+00
26 16  1  1 22  0  0.0-0.192315317690D-03-0.170530256582D-10 0.000000000000D+00
    0.101000000000D+03-0.346875000000D+01 0.436803908922D-08-0.886334797345D-01
   -0.281259417534D-06 0.631279544905D-03 0.791251659393D-05 0.515369058990D+04
    0.511200000000D+06 0.335276126862D-07-0.163642679341D+01 0.000000000000D+00
    0.960478298794D+00 0.228812500000D+03-0.274905852761D+00-0.805212111745D-08
   -0.121790787361D-09 0.100000000000D+01 0.187700000000D+04 0.000000000000D+00
    0.280000000000D+01 0.000000000000D+00 0.745058059692D-08 0.101000000000D+03
    0.510810000000D+06 0.400000000000D+01 0.000000000000D+00 0.000000000000D+00
27 16  1  1 22  0  0.0 0.496003776789D-04 0.341060513165D-11 0.000000000000D+00
    0.550000000000D+02-0.281250000000D+00 0.431446542909D-08-0.214537374907D+01
    0.447034835815D-07 0.293192488607D-02 0.605918467045D-05 0.515371057320D+04
    0.511200000000D+06-0.540167093277D-07-0.587327290231D+00 0.502914190292D-07
    0.969905239029D+00 0.269312500000D+03 0.231810761403D+00-0.800569061200D-08
    0.236081262304D-09 0.100000000000D+01 0.187700000000D+04 0.000000000000D+00
    0.200000000000D+01 0.000000000000D+00 0.186264514923D-08 0.550000000000D+02
    0.504018000000D+06 0.400000000000D+01 0.000000000000D+00 0.000000000000D+00
28 16  1  1 22  0  0.0 0.492409337312D-03 0.261479726760D-11 0.000000000000D+00
    0.240000000000D+02 0.553125000000D+01 0.378230040514D-08-0.139322671298D+01
    0.502914190292D-06 0.200351784006D-01 0.895187258720D-05 0.515370499802D+04
    0.511200000000D+06-0.391155481338D-07-0.155693972182D+01 0.504776835442D-06
    0.989271167161D+00 0.222843750000D+03-0.163394774706D+01-0.783068332225D-08
   -0.104647216119D-09 0.000000000000D+00 0.187700000000D+04 0.000000000000D+00
    0.200000000000D+01 0.000000000000D+00-0.111758708954D-07 0.240000000000D+02
    0.509100000000D+06 0.400000000000D+01 0.000000000000D+00 0.000000000000D+00
